{
"type": "FeatureCollection",
"name": "parcels_200ft",
"crs": { "type": "name", "properties": { "name": "urn:ogc:def:crs:OGC:1.3:CRS84" } },
"features": [
{ "type": "Feature", "properties": { "OBJECTID": 2611, "Condo": "", "Latitude": 4189805.8870873698, "Longitude": 564184.93181877001, "Shape.STArea()": 18045.51430793, "Shape.STLength()": 681.80929132951883, "PARCELID": "053 159703904", "APN": "53-1597-39-4", "DATE_UPDAT": null, "SitusStree": "ADELINE ST", "SitusStr_1": "", "SitusUnit": "", "SitusCity": "BERKELEY", "SitusZip": "94703", "Land": 0, "Imps": 0, "HOEX": 0, "OTEX": 0, "TotalNetVa": 0, "LatestDocu": "3/1/1971", "UseCode": "0300", "EconUnit": "", "Units": 0, "Class": "", "EffectiveY": 0, "BuildingAr": 0, "LotSize": 194348, "Buildings": 0, "Stories": 0, "Rooms": 0, "Beds": 0, "LandType": "", "Conformity": "", "Additions": 0, "YearBuilt": 0, "Baths": 0.0, "Elevator": "", "Pool": "", "EconomicUn": 0, "SitusAddre": " ADELINE ST BERKELEY 94703", "MailingA_5": "2150 WEBSTER ST 9TH OAKLAND CA 94612", "APN_SORT": "053 159703904", "BLDSQFTTAXABLE": 0.0, "LONG_DEG": 564184.93181877001, "LAT_DEG": 4189805.8870873698, "LastEditedDate": 36633600000.0, "EditType": "Unchanged", "tier1_zone": "200ft", "ZONECLASS": "R-BMU", "ZONEDESC": "Residential BART MIxed Use", "PotentialCapacity": 713.85858585858591, "NetIncreaseCapacity": 713.85858585858591 }, "geometry": { "type": "MultiPolygon", "coordinates": [ [ [ [ -122.270611455959056, 37.851888107040971 ], [ -122.27056149789658, 37.851899851490451 ], [ -122.270551441326532, 37.851913730416541 ], [ -122.270534519468768, 37.85193046537529 ], [ -122.270517954623628, 37.851962301930328 ], [ -122.269623183314962, 37.854315986931105 ], [ -122.269615115295878, 37.854340830630171 ], [ -122.269629904264931, 37.854379746508194 ], [ -122.269656580965929, 37.85440887956613 ], [ -122.269691500104258, 37.854420032449703 ], [ -122.269734872705953, 37.854423499239047 ], [ -122.27095566059397, 37.854263042975745 ], [ -122.270705120530081, 37.851966366156631 ], [ -122.270699106166987, 37.851932113963798 ], [ -122.270660199245384, 37.851898364658673 ], [ -122.270611455959056, 37.851888107040971 ] ] ] ] } },
{ "type": "Feature", "properties": { "OBJECTID": 4499, "Condo": "", "Latitude": 4189785.4446545802, "Longitude": 564294.24597706005, "Shape.STArea()": 683.51046849, "Shape.STLength()": 128.2555804730564, "PARCELID": "053 170300100", "APN": "53-1703-1", "DATE_UPDAT": null, "SitusStree": "ESSEX ST", "SitusStr_1": "1900", "SitusUnit": "", "SitusCity": "BERKELEY", "SitusZip": "94703", "Land": 60068, "Imps": 115234, "HOEX": 0, "OTEX": 161277, "TotalNetVa": 14025, "LatestDocu": "3/1/1969", "UseCode": "6600", "EconUnit": "", "Units": 0, "Class": "D0.5M", "EffectiveY": 1936, "BuildingAr": 4363, "LotSize": 7361, "Buildings": 2, "Stories": 1, "Rooms": 0, "Beds": 0, "LandType": "", "Conformity": "", "Additions": 0, "YearBuilt": 1936, "Baths": 3.0, "Elevator": "N", "Pool": "", "EconomicUn": 0, "SitusAddre": "1900 ESSEX ST BERKELEY 94703", "MailingA_5": "1900 ESSEX ST BERKELEY CA 94703", "APN_SORT": "053 170300100", "BLDSQFTTAXABLE": 4243.0, "LONG_DEG": 564294.24597706005, "LAT_DEG": 4189785.4446545802, "LastEditedDate": -26438400000.0, "EditType": "Unchanged", "tier1_zone": "200ft", "ZONECLASS": "C-AC", "ZONEDESC": "Adeline Corridor Commercial", "PotentialCapacity": 27.037649219467404, "NetIncreaseCapacity": 27.037649219467404 }, "geometry": { "type": "MultiPolygon", "coordinates": [ [ [ [ -122.268968704374913, 37.853112470613311 ], [ -122.269025114545201, 37.853383432605618 ], [ -122.269349820344772, 37.8533412276701 ], [ -122.269406332668865, 37.853194723233202 ], [ -122.269132498684513, 37.853230333872069 ], [ -122.269105421373141, 37.853094701274742 ], [ -122.268968704374913, 37.853112470613311 ] ] ] ] } },
{ "type": "Feature", "properties": { "OBJECTID": 4505, "Condo": "", "Latitude": 4189772.2301749499, "Longitude": 564283.6842745, "Shape.STArea()": 428.69387461000002, "Shape.STLength()": 88.509030866068699, "PARCELID": "053 170300700", "APN": "53-1703-7", "DATE_UPDAT": null, "SitusStree": "ADELINE ST", "SitusStr_1": "3061", "SitusUnit": "", "SitusCity": "BERKELEY", "SitusZip": "94703", "Land": 50261, "Imps": 18633, "HOEX": 0, "OTEX": 0, "TotalNetVa": 68894, "LatestDocu": "12/28/1973", "UseCode": "2400", "EconUnit": "", "Units": 4, "Class": "D1.0M", "EffectiveY": 1910, "BuildingAr": 3868, "LotSize": 4617, "Buildings": 1, "Stories": 2, "Rooms": 14, "Beds": 6, "LandType": "", "Conformity": "", "Additions": 0, "YearBuilt": 1910, "Baths": 4.0, "Elevator": "N", "Pool": "", "EconomicUn": 0, "SitusAddre": "3061 ADELINE ST BERKELEY 94703", "MailingA_5": "1900 ESSEX ST BERKELEY CA 94703", "APN_SORT": "053 170300700", "BLDSQFTTAXABLE": 4774.0, "LONG_DEG": 564283.6842745, "LAT_DEG": 4189772.2301749499, "LastEditedDate": 125884800000.0, "EditType": "Unchanged", "tier1_zone": "200ft", "ZONECLASS": "C-AC", "ZONEDESC": "Adeline Corridor Commercial", "PotentialCapacity": 16.958677685950413, "NetIncreaseCapacity": 12.958677685950413 }, "geometry": { "type": "MultiPolygon", "coordinates": [ [ [ [ -122.269105421373141, 37.853094701274742 ], [ -122.269132498684513, 37.853230333872069 ], [ -122.269406332668865, 37.853194723233202 ], [ -122.269462835431781, 37.853048243040277 ], [ -122.269395126337528, 37.853057044090527 ], [ -122.269105421373141, 37.853094701274742 ] ] ] ] } },
{ "type": "Feature", "properties": { "OBJECTID": 4506, "Condo": "", "Latitude": 4189697.73948699, "Longitude": 564281.21387213003, "Shape.STArea()": 6459.5550541700004, "Shape.STLength()": 366.29272591682974, "PARCELID": "053 170300800", "APN": "53-1703-8", "DATE_UPDAT": null, "SitusStree": "ADELINE ST", "SitusStr_1": "3075", "SitusUnit": "", "SitusCity": "BERKELEY", "SitusZip": "94703", "Land": 8949306, "Imps": 35396793, "HOEX": 0, "OTEX": 32137617, "TotalNetVa": 12208482, "LatestDocu": "8/18/2008", "UseCode": "9400", "EconUnit": "", "Units": 0, "Class": "A3.0M", "EffectiveY": 2010, "BuildingAr": 80000, "LotSize": 69570, "Buildings": 1, "Stories": 2, "Rooms": 0, "Beds": 0, "LandType": "", "Conformity": "C", "Additions": 0, "YearBuilt": 2010, "Baths": 0.0, "Elevator": "Y", "Pool": "", "EconomicUn": 0, "SitusAddre": "3075 ADELINE ST BERKELEY 94703", "MailingA_5": "3075 ADELINE 105 BERKELEY CA 94703", "APN_SORT": "053 170300800", "BLDSQFTTAXABLE": 93460.0, "LONG_DEG": 564281.21387213003, "LAT_DEG": 4189697.73948699, "LastEditedDate": 1219017600000.0, "EditType": "Unchanged", "tier1_zone": "200ft", "ZONECLASS": "C-AC", "ZONEDESC": "Adeline Corridor Commercial", "PotentialCapacity": 255.53719008264463, "NetIncreaseCapacity": 255.53719008264463 }, "geometry": { "type": "MultiPolygon", "coordinates": [ [ [ [ -122.269793498274367, 37.852020119945713 ], [ -122.268754376174613, 37.852155245971446 ], [ -122.268754037985531, 37.852155306060595 ], [ -122.268769446485223, 37.852229805402096 ], [ -122.268861728683831, 37.852217805374046 ], [ -122.269015568158764, 37.852961559517283 ], [ -122.269338010783457, 37.852919628968422 ], [ -122.269355514765081, 37.852972034282729 ], [ -122.269395126337528, 37.853057044090527 ], [ -122.269462835431781, 37.853048243040277 ], [ -122.269848337777361, 37.852034850973084 ], [ -122.269793498274367, 37.852020119945713 ] ] ] ] } },
{ "type": "Feature", "properties": { "OBJECTID": 4507, "Condo": "", "Latitude": 4189723.58405319, "Longitude": 564341.89847530005, "Shape.STArea()": 7385.4455016100001, "Shape.STLength()": 405.37303319872586, "PARCELID": "053 170300900", "APN": "53-1703-9", "DATE_UPDAT": null, "SitusStree": "ADELINE ST", "SitusStr_1": "", "SitusUnit": "", "SitusCity": "BERKELEY", "SitusZip": "94703", "Land": 0, "Imps": 0, "HOEX": 0, "OTEX": 0, "TotalNetVa": 0, "LatestDocu": "1/1/1900", "UseCode": "0300", "EconUnit": "", "Units": 0, "Class": "", "EffectiveY": 0, "BuildingAr": 0, "LotSize": 79542, "Buildings": 0, "Stories": 0, "Rooms": 0, "Beds": 0, "LandType": "", "Conformity": "", "Additions": 0, "YearBuilt": 0, "Baths": 0.0, "Elevator": "", "Pool": "", "EconomicUn": 0, "SitusAddre": " ADELINE ST BERKELEY 94703", "MailingA_5": "2150 WEBSTER ST 9TH OAKLAND CA 94612", "APN_SORT": "053 170300900", "BLDSQFTTAXABLE": 0.0, "LONG_DEG": 564341.89847530005, "LAT_DEG": 4189723.58405319, "LastEditedDate": -2208988800000.0, "EditType": "Unchanged", "tier1_zone": "200ft", "ZONECLASS": "R-BMU", "ZONEDESC": "Residential BART MIxed Use", "PotentialCapacity": 292.16528925619832, "NetIncreaseCapacity": 292.16528925619832 }, "geometry": { "type": "MultiPolygon", "coordinates": [ [ [ [ -122.268754037985531, 37.852155306060595 ], [ -122.268119634161224, 37.852237782581071 ], [ -122.268319292876441, 37.85319687929772 ], [ -122.26866108773909, 37.853152454402299 ], [ -122.268831986168067, 37.85313024068661 ], [ -122.268968704374913, 37.853112470613311 ], [ -122.269105421373141, 37.853094701274742 ], [ -122.269395126337528, 37.853057044090527 ], [ -122.269355514765081, 37.852972034282729 ], [ -122.269338010783457, 37.852919628968422 ], [ -122.269015568158764, 37.852961559517283 ], [ -122.268861728683831, 37.852217805374046 ], [ -122.268769446485223, 37.852229805402096 ], [ -122.268754037985531, 37.852155306060595 ] ] ] ] } },
{ "type": "Feature", "properties": { "OBJECTID": 10986, "Condo": "", "Latitude": 4191705.9850760698, "Longitude": 564328.22574966005, "Shape.STArea()": 357.27870649499999, "Shape.STLength()": 88.951740042042715, "PARCELID": "057 202300300", "APN": "57-2023-3", "DATE_UPDAT": null, "SitusStree": "SHATTUCK AVE", "SitusStr_1": "2120", "SitusUnit": "", "SitusCity": "BERKELEY", "SitusZip": "94704", "Land": 307803, "Imps": 739922, "HOEX": 0, "OTEX": 0, "TotalNetVa": 1047725, "LatestDocu": "10/29/2013", "UseCode": "3100", "EconUnit": "", "Units": 2, "Class": "D5.5B", "EffectiveY": 1937, "BuildingAr": 4056, "LotSize": 3788, "Buildings": 1, "Stories": 2, "Rooms": 0, "Beds": 0, "LandType": "", "Conformity": "", "Additions": 0, "YearBuilt": 1930, "Baths": 0.0, "Elevator": "N", "Pool": "", "EconomicUn": 0, "SitusAddre": "2120 SHATTUCK AVE BERKELEY 94704", "MailingA_5": "2801 SHADELANDS DR 422 WALNUT CREEK CA 94598", "APN_SORT": "057 202300300", "BLDSQFTTAXABLE": 2794.0, "LONG_DEG": 564328.22574966005, "LAT_DEG": 4191705.9850760698, "LastEditedDate": 1383004800000.0, "EditType": "Unchanged", "tier1_zone": "200ft", "ZONECLASS": "C-DMU Core", "ZONEDESC": "C-DMU Core", "PotentialCapacity": 13.913682277318642, "NetIncreaseCapacity": 11.913682277318642 }, "geometry": { "type": "MultiPolygon", "coordinates": [ [ [ [ -122.268402810548736, 37.870537159967888 ], [ -122.268415516791251, 37.870633793392209 ], [ -122.268798999608109, 37.870586846209264 ], [ -122.268782968152749, 37.870495067257821 ], [ -122.268402810548736, 37.870537159967888 ] ] ] ] } },
{ "type": "Feature", "properties": { "OBJECTID": 10987, "Condo": "", "Latitude": 4191694.2300325599, "Longitude": 564315.12701612001, "Shape.STArea()": 1381.83219644, "Shape.STLength()": 181.87446945170564, "PARCELID": "057 202300400", "APN": "57-2023-4", "DATE_UPDAT": null, "SitusStree": "SHATTUCK AVE", "SitusStr_1": "2140", "SitusUnit": "", "SitusCity": "BERKELEY", "SitusZip": "94704", "Land": 6082147, "Imps": 14785735, "HOEX": 0, "OTEX": 0, "TotalNetVa": 20867882, "LatestDocu": "6/1/2007", "UseCode": "9500", "EconUnit": "", "Units": 106, "Class": "A3.5M", "EffectiveY": 1926, "BuildingAr": 62790, "LotSize": 18339, "Buildings": 1, "Stories": 12, "Rooms": 0, "Beds": 0, "LandType": "", "Conformity": "", "Additions": 0, "YearBuilt": 1926, "Baths": 0.0, "Elevator": "N", "Pool": "", "EconomicUn": 0, "SitusAddre": "2140 SHATTUCK AVE BERKELEY 94704", "MailingA_5": "P O BOX 19068 IRVINE CA 92623", "APN_SORT": "057 202300400", "BLDSQFTTAXABLE": 76334.0, "LONG_DEG": 564315.12701612001, "LAT_DEG": 4191694.2300325599, "LastEditedDate": 1180656000000.0, "EditType": "Unchanged", "tier1_zone": "200ft", "ZONECLASS": "C-DMU Core", "ZONEDESC": "C-DMU Core", "PotentialCapacity": 67.36088154269973, "NetIncreaseCapacity": 0.0 }, "geometry": { "type": "MultiPolygon", "coordinates": [ [ [ [ -122.268798999608109, 37.870586846209264 ], [ -122.268812984699025, 37.870664230538019 ], [ -122.268980541026821, 37.870643178576017 ], [ -122.269037556750845, 37.870636147396567 ], [ -122.269028561308843, 37.870592852982163 ], [ -122.268967321204585, 37.87029812531123 ], [ -122.268379717914073, 37.87036788729214 ], [ -122.268402810548736, 37.870537159967888 ], [ -122.268782968152749, 37.870495067257821 ], [ -122.268798999608109, 37.870586846209264 ] ] ] ] } },
{ "type": "Feature", "properties": { "OBJECTID": 11032, "Condo": "", "Latitude": 4191646.0467634299, "Longitude": 564326.27764693997, "Shape.STArea()": 1401.445302375, "Shape.STLength()": 161.38562296442961, "PARCELID": "057 202600201", "APN": "57-2026-2-1", "DATE_UPDAT": null, "SitusStree": "SHATTUCK AVE", "SitusStr_1": "2150", "SitusUnit": "", "SitusCity": "BERKELEY", "SitusZip": "94704", "Land": 1057380, "Imps": 21003063, "HOEX": 0, "OTEX": 0, "TotalNetVa": 22070998, "LatestDocu": "8/20/1999", "UseCode": "9500", "EconUnit": "Y", "Units": 0, "Class": "A3.5M", "EffectiveY": 1989, "BuildingAr": 138456, "LotSize": 15300, "Buildings": 1, "Stories": 13, "Rooms": 0, "Beds": 0, "LandType": "", "Conformity": "C", "Additions": 0, "YearBuilt": 1971, "Baths": 0.0, "Elevator": "N", "Pool": "", "EconomicUn": 1, "SitusAddre": "2150 SHATTUCK AVE BERKELEY 94704", "MailingA_5": "2150 SHATTUCK AVE B100 BERKELEY CA 94704", "APN_SORT": "057 202600201", "BLDSQFTTAXABLE": 169952.0, "LONG_DEG": 564326.27764693997, "LAT_DEG": 4191646.0467634299, "LastEditedDate": 935107200000.0, "EditType": "Unchanged", "tier1_zone": "200ft", "ZONECLASS": "C-DMU Core", "ZONEDESC": "C-DMU Core", "PotentialCapacity": 56.198347107438018, "NetIncreaseCapacity": 56.198347107438018 }, "geometry": { "type": "MultiPolygon", "coordinates": [ [ [ [ -122.268306614539895, 37.869935390719327 ], [ -122.268333127173563, 37.870175336928042 ], [ -122.268967047618773, 37.870095105857096 ], [ -122.268920401573553, 37.869882930641481 ], [ -122.268662776248803, 37.869904647026715 ], [ -122.268648927187641, 37.869905544307727 ], [ -122.268306614539895, 37.869935390719327 ] ] ] ] } },
{ "type": "Feature", "properties": { "OBJECTID": 11033, "Condo": "", "Latitude": 4191587.3305884502, "Longitude": 564323.75153115997, "Shape.STArea()": 1868.5871599499999, "Shape.STLength()": 192.57269054397096, "PARCELID": "057 202600405", "APN": "57-2026-4-5", "DATE_UPDAT": null, "SitusStree": "SHATTUCK AVE", "SitusStr_1": "2190", "SitusUnit": "", "SitusCity": "BERKELEY", "SitusZip": "94704", "Land": 28727524, "Imps": 104040, "HOEX": 0, "OTEX": 0, "TotalNetVa": 28831564, "LatestDocu": "11/23/2022", "UseCode": "3200", "EconUnit": "", "Units": 2, "Class": "C2.0M", "EffectiveY": 2000, "BuildingAr": 43643, "LotSize": 19680, "Buildings": 1, "Stories": 2, "Rooms": 0, "Beds": 0, "LandType": "", "Conformity": "", "Additions": 0, "YearBuilt": 1958, "Baths": 0.0, "Elevator": "N", "Pool": "", "EconomicUn": 0, "SitusAddre": "2190 SHATTUCK AVE BERKELEY 94704", "MailingA_5": "PO BOX 92129 SOUTHLAKE TX 76092", "APN_SORT": "057 202600405", "BLDSQFTTAXABLE": 54385.0, "LONG_DEG": 564323.75153115997, "LAT_DEG": 4191587.3305884502, "LastEditedDate": 1669161600000.0, "EditType": "Unchanged", "tier1_zone": "200ft", "ZONECLASS": "C-DMU Core", "ZONEDESC": "C-DMU Core", "PotentialCapacity": 72.286501377410474, "NetIncreaseCapacity": 70.286501377410474 }, "geometry": { "type": "MultiPolygon", "coordinates": [ [ [ [ -122.269017976654226, 37.869325251138164 ], [ -122.26825107648952, 37.869422566562974 ], [ -122.268273875506594, 37.869651590402007 ], [ -122.268669740517225, 37.869615445038178 ], [ -122.269067354089955, 37.86957926863883 ], [ -122.269017976654226, 37.869325251138164 ] ] ] ] } },
{ "type": "Feature", "properties": { "OBJECTID": 11038, "Condo": "", "Latitude": 4191608.6108765998, "Longitude": 564285.45995477005, "Shape.STArea()": 3146.00622398, "Shape.STLength()": 310.6354837028934, "PARCELID": "057 202601203", "APN": "57-2026-12-3", "DATE_UPDAT": null, "SitusStree": "CENTER ST", "SitusStr_1": "2052", "SitusUnit": "", "SitusCity": "BERKELEY", "SitusZip": "94704", "Land": 2148572, "Imps": 3383309, "HOEX": 0, "OTEX": 0, "TotalNetVa": 5531881, "LatestDocu": "8/20/1999", "UseCode": "9500", "EconUnit": "Y", "Units": 0, "Class": "", "EffectiveY": 0, "BuildingAr": 0, "LotSize": 31056, "Buildings": 0, "Stories": 0, "Rooms": 0, "Beds": 0, "LandType": "", "Conformity": "", "Additions": 0, "YearBuilt": 0, "Baths": 0.0, "Elevator": "", "Pool": "", "EconomicUn": 1, "SitusAddre": "2052 CENTER ST BERKELEY 94704", "MailingA_5": "2150 SHATTUCK AVE B100 BERKELEY CA 94704", "APN_SORT": "057 202601203", "BLDSQFTTAXABLE": 193269.0, "LONG_DEG": 564285.45995477005, "LAT_DEG": 4191608.6108765998, "LastEditedDate": 935107200000.0, "EditType": "Unchanged", "tier1_zone": "200ft", "ZONECLASS": "C-DMU Core", "ZONEDESC": "C-DMU Core", "PotentialCapacity": 114.07162534435261, "NetIncreaseCapacity": 114.07162534435261 }, "geometry": { "type": "MultiPolygon", "coordinates": [ [ [ [ -122.268920401573553, 37.869882930641481 ], [ -122.268914538178791, 37.869854866762914 ], [ -122.269097704300776, 37.869834264860266 ], [ -122.26913984261563, 37.870076035682736 ], [ -122.269385094660066, 37.870044208292647 ], [ -122.269308484757815, 37.869664923532447 ], [ -122.269393133994058, 37.869654720783473 ], [ -122.269391119326585, 37.869643090630106 ], [ -122.26932550718135, 37.869289048086387 ], [ -122.269017976654226, 37.869325251138164 ], [ -122.269067354089955, 37.86957926863883 ], [ -122.268669740517225, 37.869615445038178 ], [ -122.268688750346215, 37.869831463051497 ], [ -122.268640356598254, 37.869836325039763 ], [ -122.268648927187641, 37.869905544307727 ], [ -122.268662776248803, 37.869904647026715 ], [ -122.268920401573553, 37.869882930641481 ] ] ] ] } },
{ "type": "Feature", "properties": { "OBJECTID": 11039, "Condo": "", "Latitude": 4191618.3272119798, "Longitude": 564339.26529251004, "Shape.STArea()": 1067.82456495, "Shape.STLength()": 132.9944459402013, "PARCELID": "057 202601300", "APN": "57-2026-13", "DATE_UPDAT": null, "SitusStree": "SHATTUCK AVE", "SitusStr_1": "2168", "SitusUnit": "", "SitusCity": "BERKELEY", "SitusZip": "94704", "Land": 660000, "Imps": 21340000, "HOEX": 0, "OTEX": 0, "TotalNetVa": 22000000, "LatestDocu": "12/20/2024", "UseCode": "3200", "EconUnit": "", "Units": 0, "Class": "C7.0A", "EffectiveY": 1955, "BuildingAr": 36644, "LotSize": 11157, "Buildings": 1, "Stories": 3, "Rooms": 0, "Beds": 0, "LandType": "", "Conformity": "", "Additions": 0, "YearBuilt": 1955, "Baths": 0.0, "Elevator": "N", "Pool": "", "EconomicUn": 0, "SitusAddre": "2168 SHATTUCK AVE BERKELEY 94704", "MailingA_5": "P O BOX 62143 IRVINE CA 92602", "APN_SORT": "057 202601300", "BLDSQFTTAXABLE": 43090.0, "LONG_DEG": 564339.26529251004, "LAT_DEG": 4191618.3272119798, "LastEditedDate": 1734652800000.0, "EditType": "Unchanged", "tier1_zone": "200ft", "ZONECLASS": "C-DMU Core", "ZONEDESC": "C-DMU Core", "PotentialCapacity": 40.980716253443525, "NetIncreaseCapacity": 40.980716253443525 }, "geometry": { "type": "MultiPolygon", "coordinates": [ [ [ [ -122.268273875506594, 37.869651590402007 ], [ -122.268306614539895, 37.869935390719327 ], [ -122.268648927187641, 37.869905544307727 ], [ -122.268640356598254, 37.869836325039763 ], [ -122.268688750346215, 37.869831463051497 ], [ -122.268669740517225, 37.869615445038178 ], [ -122.268273875506594, 37.869651590402007 ] ] ] ] } },
{ "type": "Feature", "properties": { "OBJECTID": 11080, "Condo": "", "Latitude": 4191606.0122988201, "Longitude": 564425.31230889994, "Shape.STArea()": 967.16473723499996, "Shape.STLength()": 126.16377233135198, "PARCELID": "057 203100600", "APN": "57-2031-6", "DATE_UPDAT": null, "SitusStree": "SHATTUCK AVE", "SitusStr_1": "2187", "SitusUnit": "", "SitusCity": "BERKELEY", "SitusZip": "94704", "Land": 2065168, "Imps": 2661956, "HOEX": 0, "OTEX": 0, "TotalNetVa": 4727124, "LatestDocu": "6/11/2014", "UseCode": "3100", "EconUnit": "", "Units": 1, "Class": "C6.0C", "EffectiveY": 1990, "BuildingAr": 12172, "LotSize": 10210, "Buildings": 1, "Stories": 2, "Rooms": 0, "Beds": 0, "LandType": "", "Conformity": "A", "Additions": 0, "YearBuilt": 1920, "Baths": 3.0, "Elevator": "Y", "Pool": "", "EconomicUn": 0, "SitusAddre": "2187 SHATTUCK AVE BERKELEY 94704", "MailingA_5": "PO BOX 9456 MINNEAPOLIS MN 55440", "APN_SORT": "057 203100600", "BLDSQFTTAXABLE": 11970.0, "LONG_DEG": 564425.31230889994, "LAT_DEG": 4191606.0122988201, "LastEditedDate": 1402444800000.0, "EditType": "Unchanged", "tier1_zone": "200ft", "ZONECLASS": "C-DMU Core", "ZONEDESC": "C-DMU Core", "PotentialCapacity": 37.502295684113861, "NetIncreaseCapacity": 36.502295684113861 }, "geometry": { "type": "MultiPolygon", "coordinates": [ [ [ [ -122.267284290122049, 37.869565466083863 ], [ -122.267305504804867, 37.869801365199784 ], [ -122.267704473617414, 37.869749388683189 ], [ -122.267721046552225, 37.869572648417233 ], [ -122.267712713726056, 37.869513729621005 ], [ -122.267284290122049, 37.869565466083863 ] ] ] ] } },
{ "type": "Feature", "properties": { "OBJECTID": 11081, "Condo": "", "Latitude": 4191626.9892576798, "Longitude": 564425.11099972005, "Shape.STArea()": 526.46557987999995, "Shape.STLength()": 99.899071823929745, "PARCELID": "057 203100700", "APN": "57-2031-7", "DATE_UPDAT": null, "SitusStree": "SHATTUCK AVE", "SitusStr_1": "2181", "SitusUnit": "", "SitusCity": "BERKELEY", "SitusZip": "94704", "Land": 254721, "Imps": 150002, "HOEX": 0, "OTEX": 0, "TotalNetVa": 404723, "LatestDocu": "2/11/2021", "UseCode": "3600", "EconUnit": "", "Units": 2, "Class": "C6.0B", "EffectiveY": 1961, "BuildingAr": 4666, "LotSize": 5203, "Buildings": 1, "Stories": 2, "Rooms": 0, "Beds": 0, "LandType": "", "Conformity": "", "Additions": 0, "YearBuilt": 1925, "Baths": 0.0, "Elevator": "N", "Pool": "", "EconomicUn": 0, "SitusAddre": "2181 SHATTUCK AVE BERKELEY 94704", "MailingA_5": "2171 SHATTUCK AVE B BERKELEY CA 94704", "APN_SORT": "057 203100700", "BLDSQFTTAXABLE": 5016.0, "LONG_DEG": 564425.11099972005, "LAT_DEG": 4191626.9892576798, "LastEditedDate": 1613001600000.0, "EditType": "Unchanged", "tier1_zone": "200ft", "ZONECLASS": "C-DMU Core", "ZONEDESC": "C-DMU Core", "PotentialCapacity": 19.111111111111111, "NetIncreaseCapacity": 17.111111111111111 }, "geometry": { "type": "MultiPolygon", "coordinates": [ [ [ [ -122.267305504804867, 37.869801365199784 ], [ -122.267319227345467, 37.869941254453693 ], [ -122.267690498899697, 37.869889680644008 ], [ -122.267704473617414, 37.869749388683189 ], [ -122.267305504804867, 37.869801365199784 ] ] ] ] } },
{ "type": "Feature", "properties": { "OBJECTID": 11082, "Condo": "", "Latitude": 4191642.1303708102, "Longitude": 564427.24937847001, "Shape.STArea()": 501.66104695500002, "Shape.STLength()": 101.31695000424811, "PARCELID": "057 203100800", "APN": "57-2031-8", "DATE_UPDAT": null, "SitusStree": "SHATTUCK AVE", "SitusStr_1": "2171", "SitusUnit": "", "SitusCity": "BERKELEY", "SitusZip": "94704", "Land": 587131, "Imps": 1087025, "HOEX": 0, "OTEX": 0, "TotalNetVa": 1674156, "LatestDocu": "2/11/2021", "UseCode": "3200", "EconUnit": "", "Units": 0, "Class": "D5.5B", "EffectiveY": 1950, "BuildingAr": 9328, "LotSize": 5773, "Buildings": 1, "Stories": 2, "Rooms": 0, "Beds": 0, "LandType": "", "Conformity": "", "Additions": 0, "YearBuilt": 1910, "Baths": 2.5, "Elevator": "Y", "Pool": "", "EconomicUn": 0, "SitusAddre": "2171 SHATTUCK AVE BERKELEY 94704", "MailingA_5": "2171 SHATTUCK AVE B BERKELEY CA 94704", "APN_SORT": "057 203100800", "BLDSQFTTAXABLE": 11916.0, "LONG_DEG": 564427.24937847001, "LAT_DEG": 4191642.1303708102, "LastEditedDate": 1613001600000.0, "EditType": "Unchanged", "tier1_zone": "200ft", "ZONECLASS": "C-DMU Core", "ZONEDESC": "C-DMU Core", "PotentialCapacity": 21.204775022956845, "NetIncreaseCapacity": 21.204775022956845 }, "geometry": { "type": "MultiPolygon", "coordinates": [ [ [ [ -122.267267437093892, 37.86994889685532 ], [ -122.267275531519175, 37.870070314261731 ], [ -122.267676229239825, 37.870018298136884 ], [ -122.267690498899697, 37.869889680644008 ], [ -122.267319227345467, 37.869941254453693 ], [ -122.267267437093892, 37.86994889685532 ] ] ] ] } },
{ "type": "Feature", "properties": { "OBJECTID": 11083, "Condo": "", "Latitude": 4191661.7136685601, "Longitude": 564427.77025859, "Shape.STArea()": 862.59033393000004, "Shape.STLength()": 121.63517880780886, "PARCELID": "057 203100900", "APN": "57-2031-9", "DATE_UPDAT": null, "SitusStree": "SHATTUCK AVE", "SitusStr_1": "2161", "SitusUnit": "", "SitusCity": "BERKELEY", "SitusZip": "94704", "Land": 488989, "Imps": 1094408, "HOEX": 0, "OTEX": 0, "TotalNetVa": 1583397, "LatestDocu": "4/2/1965", "UseCode": "3200", "EconUnit": "", "Units": 0, "Class": "C1.5M", "EffectiveY": 1945, "BuildingAr": 22315, "LotSize": 9396, "Buildings": 1, "Stories": 3, "Rooms": 0, "Beds": 0, "LandType": "", "Conformity": "", "Additions": 0, "YearBuilt": 1915, "Baths": 6.0, "Elevator": "N", "Pool": "", "EconomicUn": 0, "SitusAddre": "2161 SHATTUCK AVE BERKELEY 94704", "MailingA_5": "1600 EL CAMINO REAL D BELMONT CA 94002", "APN_SORT": "057 203100900", "BLDSQFTTAXABLE": 34020.0, "LONG_DEG": 564427.77025859, "LAT_DEG": 4191661.7136685601, "LastEditedDate": -149904000000.0, "EditType": "Unchanged", "tier1_zone": "200ft", "ZONECLASS": "C-DMU Core", "ZONEDESC": "C-DMU Core", "PotentialCapacity": 34.512396694214878, "NetIncreaseCapacity": 34.512396694214878 }, "geometry": { "type": "MultiPolygon", "coordinates": [ [ [ [ -122.267275531519175, 37.870070314261731 ], [ -122.26728340615054, 37.870182127035257 ], [ -122.267266070550946, 37.87018239047768 ], [ -122.267275696399793, 37.870295550764041 ], [ -122.267655721246967, 37.870247969294169 ], [ -122.267676229239825, 37.870018298136884 ], [ -122.267275531519175, 37.870070314261731 ] ] ] ] } },
{ "type": "Feature", "properties": { "OBJECTID": 11093, "Condo": "", "Latitude": 4191724.8717678199, "Longitude": 564384.64535323996, "Shape.STArea()": 221.41424284499999, "Shape.STLength()": 60.02401499750777, "PARCELID": "057 203201800", "APN": "57-2032-18", "DATE_UPDAT": null, "SitusStree": "BERKELEY SQ", "SitusStr_1": "134", "SitusUnit": "", "SitusCity": "BERKELEY", "SitusZip": "94704", "Land": 684514, "Imps": 508675, "HOEX": 0, "OTEX": 0, "TotalNetVa": 1193189, "LatestDocu": "9/15/2015", "UseCode": "3100", "EconUnit": "", "Units": 3, "Class": "C6.0B", "EffectiveY": 1930, "BuildingAr": 2162, "LotSize": 2177, "Buildings": 1, "Stories": 1, "Rooms": 0, "Beds": 0, "LandType": "", "Conformity": "", "Additions": 0, "YearBuilt": 1930, "Baths": 0.0, "Elevator": "N", "Pool": "", "EconomicUn": 0, "SitusAddre": "134 BERKELEY SQ BERKELEY 94704", "MailingA_5": "1521 5TH ST BERKELEY CA 94710", "APN_SORT": "057 203201800", "BLDSQFTTAXABLE": 2208.0, "LONG_DEG": 564384.64535323996, "LAT_DEG": 4191724.8717678199, "LastEditedDate": 1442275200000.0, "EditType": "Unchanged", "tier1_zone": "200ft", "ZONECLASS": "C-DMU Core", "ZONEDESC": "C-DMU Core", "PotentialCapacity": 7.9963269054178143, "NetIncreaseCapacity": 4.9963269054178143 }, "geometry": { "type": "MultiPolygon", "coordinates": [ [ [ [ -122.267882264427854, 37.870666894377386 ], [ -122.267864796525416, 37.870806551737452 ], [ -122.268047956098087, 37.87078595955326 ], [ -122.268025629583903, 37.870648269232767 ], [ -122.267882264427854, 37.870666894377386 ] ] ] ] } },
{ "type": "Feature", "properties": { "OBJECTID": 11094, "Condo": "", "Latitude": 4191705.28876284, "Longitude": 564385.23847737, "Shape.STArea()": 265.96961929499997, "Shape.STLength()": 71.091908123775568, "PARCELID": "057 203201900", "APN": "57-2032-19", "DATE_UPDAT": null, "SitusStree": "KALA BAGAI WAY", "SitusStr_1": "2144", "SitusUnit": "", "SitusCity": "BERKELEY", "SitusZip": "94704", "Land": 297847, "Imps": 2818628, "HOEX": 0, "OTEX": 0, "TotalNetVa": 3116475, "LatestDocu": "6/17/1999", "UseCode": "6400", "EconUnit": "", "Units": 1, "Class": "A7.5A", "EffectiveY": 1980, "BuildingAr": 12974, "LotSize": 2875, "Buildings": 1, "Stories": 3, "Rooms": 0, "Beds": 0, "LandType": "", "Conformity": "C", "Additions": 0, "YearBuilt": 1960, "Baths": 0.0, "Elevator": "Y", "Pool": "", "EconomicUn": 0, "SitusAddre": "2144 KALA BAGAI WAY BERKELEY 94704", "MailingA_5": "900 NORTH POINT PKWY 250 ALPHARETTA GA 30005", "APN_SORT": "057 203201900", "BLDSQFTTAXABLE": 12584.0, "LONG_DEG": 564385.23847737, "LAT_DEG": 4191705.28876284, "LastEditedDate": 929577600000.0, "EditType": "Unchanged", "tier1_zone": "200ft", "ZONECLASS": "C-DMU Core", "ZONEDESC": "C-DMU Core", "PotentialCapacity": 10.560146923783286, "NetIncreaseCapacity": 9.5601469237832859 }, "geometry": { "type": "MultiPolygon", "coordinates": [ [ [ [ -122.268025629583903, 37.870648269232767 ], [ -122.267997918982715, 37.870431007347655 ], [ -122.267895953547495, 37.870441466434102 ], [ -122.267882264427854, 37.870666894377386 ], [ -122.268025629583903, 37.870648269232767 ] ] ] ] } },
{ "type": "Feature", "properties": { "OBJECTID": 11095, "Condo": "", "Latitude": 4191727.0577843199, "Longitude": 564449.27499836998, "Shape.STArea()": 3509.230735565, "Shape.STLength()": 251.98256158523023, "PARCELID": "057 203202300", "APN": "57-2032-23", "DATE_UPDAT": null, "SitusStree": "CENTER ST", "SitusStr_1": "2121", "SitusUnit": "COM", "SitusCity": "BERKELEY", "SitusZip": "94704", "Land": 0, "Imps": 0, "HOEX": 0, "OTEX": 0, "TotalNetVa": 0, "LatestDocu": "1/1/1900", "UseCode": "3990", "EconUnit": "", "Units": 0, "Class": "", "EffectiveY": 0, "BuildingAr": 0, "LotSize": 37795, "Buildings": 0, "Stories": 0, "Rooms": 0, "Beds": 0, "LandType": "", "Conformity": "", "Additions": 0, "YearBuilt": 0, "Baths": 0.0, "Elevator": "", "Pool": "", "EconomicUn": 0, "SitusAddre": "2121 CENTER ST  COM BERKELEY 94704", "MailingA_5": "30 ROWES WHARF 5300 BOSTON MA 02110", "APN_SORT": "057 203202300", "BLDSQFTTAXABLE": null, "LONG_DEG": 564449.27499836998, "LAT_DEG": 4191727.0577843199, "LastEditedDate": -2208988800000.0, "EditType": "Unchanged", "tier1_zone": "200ft", "ZONECLASS": "C-DMU Core", "ZONEDESC": "C-DMU Core", "PotentialCapacity": 138.82460973370064, "NetIncreaseCapacity": 138.82460973370064 }, "geometry": { "type": "MultiPolygon", "coordinates": [ [ [ [ -122.26714263123489, 37.870960176727635 ], [ -122.267147232945348, 37.871001229456347 ], [ -122.267147249543612, 37.871001275525522 ], [ -122.267599056940327, 37.870943190371918 ], [ -122.267599088809334, 37.870943186965015 ], [ -122.267599807150404, 37.870943094995525 ], [ -122.26764419643419, 37.870479233921898 ], [ -122.266754645064395, 37.870593593240308 ], [ -122.266792980905919, 37.870935516102755 ], [ -122.26696395168662, 37.87091353741873 ], [ -122.266971633148245, 37.870981922066285 ], [ -122.267142605124519, 37.870959943130622 ], [ -122.26714263123489, 37.870960176727635 ] ] ] ] } },
{ "type": "Feature", "properties": { "OBJECTID": 12787, "Condo": "", "Latitude": 4192097.1554995999, "Longitude": 562969.80881677999, "Shape.STArea()": 10088.960809785, "Shape.STLength()": 405.99094336860702, "PARCELID": "058 214601605", "APN": "58-2146-16-5", "DATE_UPDAT": null, "SitusStree": "ACTON ST", "SitusStr_1": "", "SitusUnit": "", "SitusCity": "BERKELEY", "SitusZip": "94702", "Land": 0, "Imps": 0, "HOEX": 0, "OTEX": 0, "TotalNetVa": 0, "LatestDocu": "3/1/1971", "UseCode": "0300", "EconUnit": "", "Units": 0, "Class": "", "EffectiveY": 0, "BuildingAr": 0, "LotSize": 108657, "Buildings": 0, "Stories": 0, "Rooms": 0, "Beds": 0, "LandType": "", "Conformity": "", "Additions": 0, "YearBuilt": 0, "Baths": 0.0, "Elevator": "", "Pool": "", "EconomicUn": 0, "SitusAddre": " ACTON ST BERKELEY 94702", "MailingA_5": "2150 WEBSTER ST 9TH OAKLAND CA 94612", "APN_SORT": "058 214601605", "BLDSQFTTAXABLE": 0.0, "LONG_DEG": 562969.80881677999, "LAT_DEG": 4192097.1554995999, "LastEditedDate": 36633600000.0, "EditType": "Unchanged", "tier1_zone": "200ft", "ZONECLASS": "R-BMU", "ZONEDESC": "Residential BART MIxed Use", "PotentialCapacity": 399.10743801652893, "NetIncreaseCapacity": 399.10743801652893 }, "geometry": { "type": "MultiPolygon", "coordinates": [ [ [ [ -122.283323262208143, 37.873870177033545 ], [ -122.283404675490928, 37.874662764781533 ], [ -122.284693218884485, 37.874496333379405 ], [ -122.284613542609804, 37.873705779499851 ], [ -122.28460318434206, 37.873707311844171 ], [ -122.283323262208143, 37.873870177033545 ] ] ] ] } },
{ "type": "Feature", "properties": { "OBJECTID": 12788, "Condo": "", "Latitude": 4192008.14506691, "Longitude": 562978.73440140998, "Shape.STArea()": 10373.37483504, "Shape.STLength()": 410.59437075112044, "PARCELID": "058 214701805", "APN": "58-2147-18-5", "DATE_UPDAT": null, "SitusStree": "DELAWARE ST", "SitusStr_1": "", "SitusUnit": "", "SitusCity": "BERKELEY", "SitusZip": "94702", "Land": 0, "Imps": 0, "HOEX": 0, "OTEX": 0, "TotalNetVa": 0, "LatestDocu": "3/1/1971", "UseCode": "0300", "EconUnit": "", "Units": 0, "Class": "", "EffectiveY": 0, "BuildingAr": 0, "LotSize": 111720, "Buildings": 0, "Stories": 0, "Rooms": 0, "Beds": 0, "LandType": "", "Conformity": "", "Additions": 0, "YearBuilt": 0, "Baths": 0.0, "Elevator": "", "Pool": "", "EconomicUn": 0, "SitusAddre": " DELAWARE ST BERKELEY 94702", "MailingA_5": "2150 WEBSTER ST 9TH OAKLAND CA 94612", "APN_SORT": "058 214701805", "BLDSQFTTAXABLE": 0.0, "LONG_DEG": 562978.73440140998, "LAT_DEG": 4192008.14506691, "LastEditedDate": 36633600000.0, "EditType": "Unchanged", "tier1_zone": "200ft", "ZONECLASS": "R-BMU", "ZONEDESC": "Residential BART MIxed Use", "PotentialCapacity": 410.35812672176303, "NetIncreaseCapacity": 410.35812672176303 }, "geometry": { "type": "MultiPolygon", "coordinates": [ [ [ [ -122.283220506094622, 37.873055934536886 ], [ -122.283323262208143, 37.873870177033545 ], [ -122.28460318434206, 37.873707311844171 ], [ -122.284512557056317, 37.87289288452606 ], [ -122.283220506094622, 37.873055934536886 ] ] ] ] } },
{ "type": "Feature", "properties": { "OBJECTID": 12789, "Condo": "", "Latitude": 4192023.2845441201, "Longitude": 563069.34794825001, "Shape.STArea()": 6268.47536115, "Shape.STLength()": 319.84649007506215, "PARCELID": "058 214801704", "APN": "58-2148-17-4", "DATE_UPDAT": null, "SitusStree": "DELAWARE ST", "SitusStr_1": "1429", "SitusUnit": "", "SitusCity": "BERKELEY", "SitusZip": "94702", "Land": 0, "Imps": 0, "HOEX": 0, "OTEX": 0, "TotalNetVa": 0, "LatestDocu": "3/1/1971", "UseCode": "0300", "EconUnit": "", "Units": 0, "Class": "", "EffectiveY": 0, "BuildingAr": 0, "LotSize": 67511, "Buildings": 0, "Stories": 0, "Rooms": 0, "Beds": 0, "LandType": "", "Conformity": "", "Additions": 0, "YearBuilt": 0, "Baths": 0.0, "Elevator": "", "Pool": "", "EconomicUn": 0, "SitusAddre": "1429 DELAWARE ST BERKELEY 94702", "MailingA_5": "2150 WEBSTER ST 9TH OAKLAND CA 94612", "APN_SORT": "058 214801704", "BLDSQFTTAXABLE": 0.0, "LONG_DEG": 563069.34794825001, "LAT_DEG": 4192023.2845441201, "LastEditedDate": 36633600000.0, "EditType": "Unchanged", "tier1_zone": "200ft", "ZONECLASS": "R-BMU", "ZONEDESC": "Residential BART MIxed Use", "PotentialCapacity": 247.97428833792469, "NetIncreaseCapacity": 247.97428833792469 }, "geometry": { "type": "MultiPolygon", "coordinates": [ [ [ [ -122.283220506094622, 37.873055934536886 ], [ -122.282448320809536, 37.873150681066981 ], [ -122.282538895738384, 37.873963735060087 ], [ -122.283323262208143, 37.873870177033545 ], [ -122.283220506094622, 37.873055934536886 ] ] ] ] } },
{ "type": "Feature", "properties": { "OBJECTID": 12790, "Condo": "", "Latitude": 4192112.2529210499, "Longitude": 563060.36480543995, "Shape.STArea()": 6087.4047188799996, "Shape.STLength()": 315.06012818185036, "PARCELID": "058 214901904", "APN": "58-2149-19-4", "DATE_UPDAT": null, "SitusStree": "SACRAMENTO ST", "SitusStr_1": "", "SitusUnit": "", "SitusCity": "BERKELEY", "SitusZip": "94702", "Land": 0, "Imps": 0, "HOEX": 0, "OTEX": 0, "TotalNetVa": 0, "LatestDocu": "3/1/1971", "UseCode": "0300", "EconUnit": "", "Units": 0, "Class": "", "EffectiveY": 0, "BuildingAr": 0, "LotSize": 65561, "Buildings": 0, "Stories": 0, "Rooms": 0, "Beds": 0, "LandType": "", "Conformity": "", "Additions": 0, "YearBuilt": 0, "Baths": 0.0, "Elevator": "", "Pool": "", "EconomicUn": 0, "SitusAddre": " SACRAMENTO ST BERKELEY 94702", "MailingA_5": "2150 WEBSTER ST 9TH OAKLAND CA 94612", "APN_SORT": "058 214901904", "BLDSQFTTAXABLE": 0.0, "LONG_DEG": 563060.36480543995, "LAT_DEG": 4192112.2529210499, "LastEditedDate": 36633600000.0, "EditType": "Unchanged", "tier1_zone": "200ft", "ZONECLASS": "R-BMU", "ZONEDESC": "Residential BART MIxed Use", "PotentialCapacity": 240.81175390266299, "NetIncreaseCapacity": 240.81175390266299 }, "geometry": { "type": "MultiPolygon", "coordinates": [ [ [ [ -122.282538895738384, 37.873963735060087 ], [ -122.282648283916828, 37.87476620428248 ], [ -122.283404675490928, 37.874662764781533 ], [ -122.283323262208143, 37.873870177033545 ], [ -122.282538895738384, 37.873963735060087 ] ] ] ] } }
]
}
