{
"type": "FeatureCollection",
"name": "transit_stops",
"crs": { "type": "name", "properties": { "name": "urn:ogc:def:crs:OGC:1.3:CRS84" } },
"features": [
{ "type": "Feature", "properties": { "OBJECTID": 55492, "agency_primary": "San Francisco Bay Area Rapid Transit District", "hqta_type": "major_stop_rail", "stop_id": "903101", "route_id": "Yellow-N", "hqta_details": "major_stop_rail_single_operator" }, "geometry": { "type": "Point", "coordinates": [ -122.251225000413967, 37.844724999728427 ] } },
{ "type": "Feature", "properties": { "OBJECTID": 55515, "agency_primary": "San Francisco Bay Area Rapid Transit District", "hqta_type": "major_stop_rail", "stop_id": "904202", "route_id": "Orange-S", "hqta_details": "major_stop_rail_single_operator" }, "geometry": { "type": "Point", "coordinates": [ -122.26816599957381, 37.87011300014364 ] } },
{ "type": "Feature", "properties": { "OBJECTID": 55509, "agency_primary": "San Francisco Bay Area Rapid Transit District", "hqta_type": "major_stop_rail", "stop_id": "904101", "route_id": "Red-N", "hqta_details": "major_stop_rail_single_operator" }, "geometry": { "type": "Point", "coordinates": [ -122.269749999812603, 37.853069000173171 ] } },
{ "type": "Feature", "properties": { "OBJECTID": 55512, "agency_primary": "San Francisco Bay Area Rapid Transit District", "hqta_type": "major_stop_rail", "stop_id": "904201", "route_id": "Orange-N", "hqta_details": "major_stop_rail_single_operator" }, "geometry": { "type": "Point", "coordinates": [ -122.268078000608568, 37.870116999659551 ] } },
{ "type": "Feature", "properties": { "OBJECTID": 55518, "agency_primary": "San Francisco Bay Area Rapid Transit District", "hqta_type": "major_stop_rail", "stop_id": "904302", "route_id": "Orange-S", "hqta_details": "major_stop_rail_single_operator" }, "geometry": { "type": "Point", "coordinates": [ -122.28359100006351, 37.873999999548793 ] } },
{ "type": "Feature", "properties": { "OBJECTID": 55510, "agency_primary": "San Francisco Bay Area Rapid Transit District", "hqta_type": "major_stop_rail", "stop_id": "904102", "route_id": "Orange-S", "hqta_details": "major_stop_rail_single_operator" }, "geometry": { "type": "Point", "coordinates": [ -122.269819000307876, 37.853087000027656 ] } },
{ "type": "Feature", "properties": { "OBJECTID": 55493, "agency_primary": "San Francisco Bay Area Rapid Transit District", "hqta_type": "major_stop_rail", "stop_id": "903102", "route_id": "Yellow-S", "hqta_details": "major_stop_rail_single_operator" }, "geometry": { "type": "Point", "coordinates": [ -122.251271000444731, 37.844795000438815 ] } },
{ "type": "Feature", "properties": { "OBJECTID": 55516, "agency_primary": "San Francisco Bay Area Rapid Transit District", "hqta_type": "major_stop_rail", "stop_id": "904301", "route_id": "Orange-N", "hqta_details": "major_stop_rail_single_operator" }, "geometry": { "type": "Point", "coordinates": [ -122.283508000222824, 37.874032000363606 ] } }
]
}
